[{"OBJECT_NAME":"HULIANWANG DIGUI-74","OBJECT_ID":"2025-187B","EPOCH":"2026-03-09T23:00:34.654752","MEAN_MOTION":13.2934321,"ECCENTRICITY":0.00010147,"INCLINATION":50.0085,"RA_OF_ASC_NODE":201.6754,"ARG_OF_PERICENTER":156.2938,"MEAN_ANOMALY":203.7981,"EPHEMERIS_TYPE":0,"CLASSIFICATION_TYPE":"U","NORAD_CAT_ID":65306,"ELEMENT_SET_NO":999,"REV_AT_EPOCH":2650,"BSTAR":0.00010923237,"MEAN_MOTION_DOT":-7.3e-7,"MEAN_MOTION_DDOT":0},{"OBJECT_NAME":"DELTA 1 DEB","OBJECT_ID":"1975-052FD","EPOCH":"2026-03-09T05:49:11.013312","MEAN_MOTION":12.75198083,"ECCENTRICITY":0.03644613,"INCLINATION":99.6914,"RA_OF_ASC_NODE":334.195,"ARG_OF_PERICENTER":176.9603,"MEAN_ANOMALY":336.8908,"EPHEMERIS_TYPE":0,"CLASSIFICATION_TYPE":"U","NORAD_CAT_ID":21469,"ELEMENT_SET_NO":999,"REV_AT_EPOCH":61847,"BSTAR":0.00094515571,"MEAN_MOTION_DOT":2.3e-6,"MEAN_MOTION_DDOT":0}]
